GPS BIIF-9  (PRN 26)    
1 40534U 15013A   25238.89794445  .00000031  00000+0  00000+0 0  9998
2 40534  53.2241 216.3514 0101301  35.8291 324.8186  2.00569005 75923
GSAT0203 (GALILEO 7)    
1 40544U 15017A   25238.16115616 -.00000109  00000+0  00000+0 0  9997
2 40544  56.8739 349.6407 0004038 245.0410 114.9326  1.70476446 64174
GSAT0204 (GALILEO 8)    
1 40545U 15017B   25237.82972288 -.00000110  00000+0  00000+0 0  9998
2 40545  56.8801 349.6670 0004271 230.7075 129.2691  1.70475872 27214
BEIDOU-3S IGSO-1S (C31) 
1 40549U 15019A   25238.65874508 -.00000155  00000+0  00000+0 0  9991
2 40549  49.7523 299.0109 0041172 195.4379 171.5881  1.00262940 38126
GPS BIIF-10 (PRN 08)    
1 40730U 15033A   25239.06028279 -.00000024  00000+0  00000+0 0  9996
2 40730  54.2188 279.2017 0105064  25.2567 335.3159  2.00571295 74095
BEIDOU-3S M2S (C58)     
1 40748U 15037A   25237.99881588 -.00000084  00000+0  00000+0 0  9995
2 40748  55.1305 312.1971 0011657 252.0152 107.9246  1.86229366 68629
BEIDOU-3S M1S (C57)     
1 40749U 15037B   25238.78028726 -.00000085  00000+0  00000+0 0  9992
2 40749  55.1265 312.1613 0002326   3.1821 356.8856  1.86254066 68648
GSAT0205 (GALILEO 9)    
1 40889U 15045A   25237.01107359  .00000027  00000+0  00000+0 0  9996
2 40889  55.0455 229.7850 0003231  11.2267 348.7600  1.70473403 61965
GSAT0206 (GALILEO 10)   
1 40890U 15045B   25238.40490809  .00000034  00000+0  00000+0 0  9995
2 40890  55.0444 229.7417 0001944 333.4267  26.5421  1.70473442 62014
BEIDOU-3S IGSO-2S (C56) 
1 40938U 15053A   25239.04715725 -.00000093  00000+0  00000+0 0  9991
2 40938  49.6803 262.2782 0062206 189.4310 353.6593  1.00294856 36409
GPS BIIF-11 (PRN 10)    
1 41019U 15062A   25238.61914812 -.00000069  00000+0  00000+0 0  9995
2 41019  56.7551  42.1807 0105791 227.9009 131.2120  2.00567149 71923
GSAT-15 (GAGAN/PRN 139) 
1 41028U 15065A   25239.04741725 -.00000260  00000+0  00000+0 0  9990
2 41028   0.1032 266.3199 0002553 208.5769 331.1833  1.00270542 35844
GSAT0209 (GALILEO 12)   
1 41174U 15079A   25237.98732401 -.00000006  00000+0  00000+0 0  9997
2 41174  55.6441 109.3668 0003570 354.4186   5.6737  1.70473849 59749
GSAT0208 (GALILEO 11)   
1 41175U 15079B   25238.20740364 -.00000006  00000+0  00000+0 0  9991
2 41175  55.6428 109.3581 0003030   5.5606 354.5387  1.70473701 60163
IRNSS-1E                
1 41241U 16003A   25237.94280784 -.00000297  00000+0  00000+0 0  9990
2 41241  32.5814  64.0290 0020933 179.3823 181.9932  1.00265274 35129
GPS BIIF-12 (PRN 32)    
1 41328U 16007A   25238.70085507 -.00000013  00000+0  00000+0 0  9997
2 41328  55.3383 101.1453 0088234 242.6045 116.5800  2.00566431 69935
COSMOS 2514 (751)       
1 41330U 16008A   25238.12045812 -.00000072  00000+0  00000+0 0  9997
2 41330  65.1929 323.1247 0012893 207.5829 152.4065  2.13102705 74334
IRNSS-1F                
1 41384U 16015A   25239.24945478  .00000156  00000+0  00000+0 0  9997
2 41384   4.6101 104.1257 0018940 175.9548 177.7954  1.00269740 34719
BEIDOU-2 IGSO-6 (C13)   
1 41434U 16021A   25238.36424579 -.00000146  00000+0  00000+0 0  9996
2 41434  59.8149  40.9786 0055643 227.5303 293.3292  1.00274708 34526
IRNSS-1G                
1 41469U 16027A   25239.22386007 -.00000338  00000+0  00000+0 0  9992
2 41469   4.4691 104.9878 0005886  24.3543  56.3874  1.00266028 34235
GSAT0211 (GALILEO 14)   
1 41549U 16030A   25237.74403409  .00000031  00000+0  00000+0 0  9995
2 41549  55.1939 229.8184 0003376 317.1135  42.8389  1.70473467 57635
GSAT0210 (GALILEO 13)   
1 41550U 16030B   25237.41516048  .00000029  00000+0  00000+0 0  9992
2 41550  55.1941 229.8257 0004316 244.6866 115.2478  1.70473778 57629
BEIDOU-2 G7 (C03)       
1 41586U 16037A   25239.26496818 -.00000355  00000+0  00000+0 0  9998
2 41586   1.9345  69.4980 0008280  10.3970 101.7291  1.00268150  3942
EUTELSAT 117 WEST B (W*)
1 41589U 16038B   25238.36989280 -.00000017  00000+0  00000+0 0  9997
2 41589   0.0091 273.5924 0000213 251.2822 186.1589  1.00274937 33703
GSAT0207 (GALILEO 15)   
1 41859U 16069A   25235.93435793 -.00000006  00000+0  00000+0 0  9994
2 41859  55.3112 109.3194 0003254 337.9170  22.1646  1.70473718 54331
GSAT0212 (GALILEO 16)   
1 41860U 16069B   25235.20156540 -.00000007  00000+0  00000+0 0  9997
2 41860  55.3084 109.3352 0003545  20.9770 339.1311  1.70473972 54573
GSAT0213 (GALILEO 17)   
1 41861U 16069C   25237.32910709 -.00000006  00000+0  00000+0 0  9997
2 41861  55.3119 109.2837 0002404 315.0102  45.0670  1.70474393 54478
GSAT0214 (GALILEO 18)   
1 41862U 16069D   25238.06150869 -.00000007  00000+0  00000+0 0  9994
2 41862  55.3111 109.2565 0001930 326.5334  33.5503  1.70474135 54613
SES-15 (WAAS/PRN 133)   
1 42709U 17026A   25238.93180635  .00000057  00000+0  00000+0 0  9993
2 42709   0.0436 319.6364 0000207 140.7578  81.2799  1.00268406  4489
QZS-2 (QZSS/PRN 194)    
1 42738U 17028A   25237.34570321 -.00000159  00000+0  00000+0 0  9990
2 42738  39.8893 247.4783 0753007 270.0812  82.6786  1.00266541  4661
QZS-3 (QZSS/PRN 199)    
1 42917U 17048A   25238.83993929 -.00000351  00000+0  00000+0 0  9993
2 42917   0.0555 159.8485 0002562   1.5664 243.3300  1.00271623 29308
COSMOS 2522 (752)       
1 42939U 17055A   25237.95893752  .00000030  00000+0  00000+0 0  9993
2 42939  64.0796 201.9313 0009998 240.1620 119.7123  2.13101980 61680
QZS-4 (QZSS/PRN 195)    
1 42965U 17062A   25238.61155650 -.00000350  00000+0  00000+0 0  9998
2 42965  40.2901 347.2559 0749057 269.1366  77.9574  1.00284181 28840
BEIDOU-3 M1 (C19)       
1 43001U 17069A   25238.88180191 -.00000036  00000+0  00000+0 0  9995
2 43001  56.4314  72.7965 0007660 320.0754  39.9290  1.86231534 53125
BEIDOU-3 M2 (C20)       
1 43002U 17069B   25238.28301545 -.00000034  00000+0  00000+0 0  9996
2 43002  56.4296  72.8525 0006597 355.7597   4.2975  1.86230990 53104
GSAT0215 (GALILEO 19)   
1 43055U 17079A   25239.13761103  .00000039  00000+0  00000+0 0  9994
2 43055  55.1712 229.5957 0003541 266.2236  93.7157  1.70474219 47973
GSAT0216 (GALILEO 20)   
1 43056U 17079B   25238.25580389  .00000033  00000+0  00000+0 0  9996
2 43056  55.1717 229.6200 0004829 276.3866  83.5369  1.70474351 47971
GSAT0217 (GALILEO 21)   
1 43057U 17079C   25238.47646143  .00000035  00000+0  00000+0 0  9994
2 43057  55.1695 229.6119 0004101 288.5665  71.3676  1.70474273 47969
GSAT0218 (GALILEO 22)   
1 43058U 17079D   25236.35020915  .00000026  00000+0  00000+0 0  9993
2 43058  55.1706 229.6682 0005296 273.3561  86.5646  1.70474212 47958
BEIDOU-3 M7 (C27)       
1 43107U 18003A   25238.02754448 -.00000086  00000+0  00000+0 0  9994
2 43107  54.5889 312.5954 0003194  97.8704 262.2317  1.86232672 51856
BEIDOU-3 M8 (C28)       
1 43108U 18003B   25237.97156051 -.00000086  00000+0  00000+0 0  9994
2 43108  54.5818 312.5808 0004334 253.4752 106.5432  1.86231083 51861
BEIDOU-3 M4 (C22)       
1 43207U 18018A   25237.87612073 -.00000032  00000+0  00000+0 0  9991
2 43207  56.3892  72.9037 0006191  33.5470 326.5566  1.86231417 51246
BEIDOU-3 M3 (C21)       
1 43208U 18018B   25237.94269784 -.00000032  00000+0  00000+0 0  9997
2 43208  56.3886  72.9057 0006052 342.4096  17.6335  1.86231379 51243
BEIDOU-3 M9 (C29)       
1 43245U 18029A   25237.62251723 -.00000082  00000+0  00000+0 0  9994
2 43245  54.4603 310.2734 0001742 222.6939 137.3606  1.86232962 50391
BEIDOU-3 M10 (C30)      
1 43246U 18029B   25237.55652881 -.00000081  00000+0  00000+0 0  9996
2 43246  54.4579 310.3033 0002534  10.1681 349.9051  1.86229251 50371
IRNSS-1I                
1 43286U 18035A   25234.14933534  .00000069  00000+0  00000+0 0  9991
2 43286  28.8809  78.8497 0019394 175.8219 184.8968  1.00275431 27086
COSMOS 2527 (756)       
1 43508U 18053A   25237.45029073  .00000005  00000+0  00000+0 0  9999
2 43508  65.4111  83.7836 0006806 217.5265 142.5050  2.13102242 55973
BEIDOU-2 IGSO-7 (C16)   
1 43539U 18057A   25238.74003076 -.00000135  00000+0  00000+0 0  9990
2 43539  55.1707 165.6174 0092471 236.9188 310.1096  1.00290234 26178
GSAT0221 (GALILEO 25)   
1 43564U 18060A   25236.25298430 -.00000112  00000+0  00000+0 0  9991
2 43564  57.2550 349.8021 0003689 265.5438  94.4229  1.70476302 44103
GSAT0222 (GALILEO 26)   
1 43565U 18060B   25238.81851065 -.00000107  00000+0  00000+0 0  9999
2 43565  57.2582 349.7359 0004022 231.2774 128.7039  1.70476090 44190
GSAT0219 (GALILEO 23)   
1 43566U 18060C   25236.69343647 -.00000111  00000+0  00000+0 0  9991
2 43566  57.2579 349.7948 0002751 268.9630  91.0158  1.70476269 44132
GSAT0220 (GALILEO 24)   
1 43567U 18060D   25238.67407150 -.00000107  00000+0  00000+0 0  9997
2 43567  57.2573 349.7413 0003182 266.5465  93.4338  1.70476364 44157
BEIDOU-3 M5 (C23)       
1 43581U 18062A   25236.17037531 -.00000004  00000+0  00000+0 0  9996
2 43581  54.0978 192.4023 0004975 293.0930  66.8083  1.86228823 48102
BEIDOU-3 M6 (C24)       
1 43582U 18062B   25238.71887257  .00000026  00000+0  00000+0 0  9990
2 43582  54.0973 192.3051 0005495  13.7090 346.2723  1.86229906 48154
BEIDOU-3 M12 (C26)      
1 43602U 18067A   25237.04457146  .00000006  00000+0  00000+0 0  9991
2 43602  54.1912 191.0830 0007807  27.3987 332.6005  1.86227775 47600
BEIDOU-3 M11 (C25)      
1 43603U 18067B   25238.78969931  .00000026  00000+0  00000+0 0  9996
2 43603  54.1882 190.9882 0004575  13.5085 346.4715  1.86227244 47665
BEIDOU-3 M13 (C32)      
1 43622U 18072A   25238.21063168 -.00000034  00000+0  00000+0 0  9998
2 43622  56.3621  72.4117 0004480 325.5131  34.5201  1.86231360 47163
BEIDOU-3 M14 (C33)      
1 43623U 18072B   25238.07610491 -.00000034  00000+0  00000+0 0  9990
2 43623  56.3641  72.4101 0003909  16.4043 343.6712  1.86231389 47153
BEIDOU-3 M16 (C35)      
1 43647U 18078A   25237.16137036 -.00000081  00000+0  00000+0 0  9992
2 43647  54.3571 310.3522 0005865  25.9743 334.1231  1.86232373 46643
BEIDOU-3 M15 (C34)      
1 43648U 18078B   25238.36445823 -.00000083  00000+0  00000+0 0  9994
2 43648  54.3518 310.3114 0002532  39.0988 320.9869  1.86232477 46686
